[{"OBJECT_NAME":"KAZSTSAT","OBJECT_ID":"2018-099AB","EPOCH":"2026-03-09T14:51:18.118944","MEAN_MOTION":14.99620503,"ECCENTRICITY":0.0006528,"INCLINATION":97.4396,"RA_OF_ASC_NODE":105.0128,"ARG_OF_PERICENTER":11.1145,"MEAN_ANOMALY":349.0222,"EPHEMERIS_TYPE":0,"CLASSIFICATION_TYPE":"U","NORAD_CAT_ID":43783,"ELEMENT_SET_NO":999,"REV_AT_EPOCH":39638,"BSTAR":0.00011446,"MEAN_MOTION_DOT":1.354e-5,"MEAN_MOTION_DDOT":0},{"OBJECT_NAME":"STARLINK-5582","OBJECT_ID":"2023-078L","EPOCH":"2026-03-09T22:42:25.553376","MEAN_MOTION":14.98320574,"ECCENTRICITY":0.00027923,"INCLINATION":70.0014,"RA_OF_ASC_NODE":344.0184,"ARG_OF_PERICENTER":266.0709,"MEAN_ANOMALY":94.0131,"EPHEMERIS_TYPE":0,"CLASSIFICATION_TYPE":"U","NORAD_CAT_ID":56777,"ELEMENT_SET_NO":999,"REV_AT_EPOCH":15271,"BSTAR":-0.00012872112,"MEAN_MOTION_DOT":-1.628e-5,"MEAN_MOTION_DDOT":0}]
